[{"OBJECT_NAME":"TRANSPORTER-16 OBJECT CN","OBJECT_ID":"2026-067CN","EPOCH":"2026-04-17T19:36:09.684000","MEAN_MOTION":14.91426754,"ECCENTRICITY":0.00014046,"INCLINATION":97.7577,"RA_OF_ASC_NODE":67.0177,"ARG_OF_PERICENTER":167.5246,"MEAN_ANOMALY":192.6008,"EPHEMERIS_TYPE":0,"CLASSIFICATION_TYPE":"U","NORAD_CAT_ID":68500,"ELEMENT_SET_NO":999,"REV_AT_EPOCH":272,"BSTAR":0.00015648528,"MEAN_MOTION_DOT":1.508e-5,"MEAN_MOTION_DDOT":0},{"OBJECT_NAME":"TRANSPORTER-16 OBJECT CP","OBJECT_ID":"2026-067CP","EPOCH":"2026-04-17T19:40:03.113472","MEAN_MOTION":14.91234325,"ECCENTRICITY":0.00022426,"INCLINATION":97.7589,"RA_OF_ASC_NODE":67.0157,"ARG_OF_PERICENTER":201.7168,"MEAN_ANOMALY":158.3956,"EPHEMERIS_TYPE":0,"CLASSIFICATION_TYPE":"U","NORAD_CAT_ID":68501,"ELEMENT_SET_NO":999,"REV_AT_EPOCH":272,"BSTAR":0.00019311811,"MEAN_MOTION_DOT":1.865e-5,"MEAN_MOTION_DDOT":0},{"OBJECT_NAME":"TRANSPORTER-16 OBJECT CQ","OBJECT_ID":"2026-067CQ","EPOCH":"2026-04-17T14:45:08.850528","MEAN_MOTION":14.9149433,"ECCENTRICITY":0.00015938,"INCLINATION":97.7583,"RA_OF_ASC_NODE":66.8219,"ARG_OF_PERICENTER":159.8582,"MEAN_ANOMALY":200.27,"EPHEMERIS_TYPE":0,"CLASSIFICATION_TYPE":"U","NORAD_CAT_ID":68502,"ELEMENT_SET_NO":999,"REV_AT_EPOCH":269,"BSTAR":0.00015164278,"MEAN_MOTION_DOT":1.462e-5,"MEAN_MOTION_DDOT":0},{"OBJECT_NAME":"TRANSPORTER-16 OBJECT CR","OBJECT_ID":"2026-067CR","EPOCH":"2026-04-17T19:48:10.777536","MEAN_MOTION":14.90736805,"ECCENTRICITY":0.00029336,"INCLINATION":97.7528,"RA_OF_ASC_NODE":66.9991,"ARG_OF_PERICENTER":248.7018,"MEAN_ANOMALY":111.3887,"EPHEMERIS_TYPE":0,"CLASSIFICATION_TYPE":"U","NORAD_CAT_ID":68503,"ELEMENT_SET_NO":999,"REV_AT_EPOCH":272,"BSTAR":0.00013542091,"MEAN_MOTION_DOT":1.275e-5,"MEAN_MOTION_DDOT":0},{"OBJECT_NAME":"TRANSPORTER-16 OBJECT CS","OBJECT_ID":"2026-067CS","EPOCH":"2026-04-17T19:30:27.369792","MEAN_MOTION":14.91751771,"ECCENTRICITY":0.00023791,"INCLINATION":97.7583,"RA_OF_ASC_NODE":67.0241,"ARG_OF_PERICENTER":134.589,"MEAN_ANOMALY":225.5523,"EPHEMERIS_TYPE":0,"CLASSIFICATION_TYPE":"U","NORAD_CAT_ID":68504,"ELEMENT_SET_NO":999,"REV_AT_EPOCH":272,"BSTAR":0.00015473551,"MEAN_MOTION_DOT":1.503e-5,"MEAN_MOTION_DDOT":0},{"OBJECT_NAME":"TRANSPORTER-16 OBJECT CT","OBJECT_ID":"2026-067CT","EPOCH":"2026-04-17T19:50:26.993184","MEAN_MOTION":14.90636918,"ECCENTRICITY":0.00038446,"INCLINATION":97.7568,"RA_OF_ASC_NODE":67.0027,"ARG_OF_PERICENTER":237.6549,"MEAN_ANOMALY":122.4298,"EPHEMERIS_TYPE":0,"CLASSIFICATION_TYPE":"U","NORAD_CAT_ID":68505,"ELEMENT_SET_NO":999,"REV_AT_EPOCH":272,"BSTAR":0.00016757688,"MEAN_MOTION_DOT":1.587e-5,"MEAN_MOTION_DDOT":0},{"OBJECT_NAME":"STARLINK-37262","OBJECT_ID":"2026-068A","EPOCH":"2026-04-17T22:15:01.878048","MEAN_MOTION":15.80928777,"ECCENTRICITY":9.165e-5,"INCLINATION":53.1575,"RA_OF_ASC_NODE":312.6896,"ARG_OF_PERICENTER":66.1337,"MEAN_ANOMALY":293.9782,"EPHEMERIS_TYPE":0,"CLASSIFICATION_TYPE":"U","NORAD_CAT_ID":68508,"ELEMENT_SET_NO":999,"REV_AT_EPOCH":287,"BSTAR":0.00094064026,"MEAN_MOTION_DOT":0.00189571,"MEAN_MOTION_DDOT":0},{"OBJECT_NAME":"STARLINK-36292","OBJECT_ID":"2026-068B","EPOCH":"2026-04-17T22:13:56.951904","MEAN_MOTION":15.8093758,"ECCENTRICITY":4.934e-5,"INCLINATION":53.1573,"RA_OF_ASC_NODE":312.6844,"ARG_OF_PERICENTER":59.6057,"MEAN_ANOMALY":300.5015,"EPHEMERIS_TYPE":0,"CLASSIFICATION_TYPE":"U","NORAD_CAT_ID":68509,"ELEMENT_SET_NO":999,"REV_AT_EPOCH":287,"BSTAR":0.00094321757,"MEAN_MOTION_DOT":0.00190186,"MEAN_MOTION_DDOT":0},{"OBJECT_NAME":"STARLINK-37260","OBJECT_ID":"2026-068C","EPOCH":"2026-04-17T22:12:52.168320","MEAN_MOTION":15.80930603,"ECCENTRICITY":6.199e-5,"INCLINATION":53.1571,"RA_OF_ASC_NODE":312.6786,"ARG_OF_PERICENTER":66.9159,"MEAN_ANOMALY":293.1929,"EPHEMERIS_TYPE":0,"CLASSIFICATION_TYPE":"U","NORAD_CAT_ID":68510,"ELEMENT_SET_NO":999,"REV_AT_EPOCH":287,"BSTAR":0.00092632931,"MEAN_MOTION_DOT":0.00186629,"MEAN_MOTION_DDOT":0},{"OBJECT_NAME":"STARLINK-37280","OBJECT_ID":"2026-068D","EPOCH":"2026-04-17T20:40:45.225984","MEAN_MOTION":15.80915219,"ECCENTRICITY":6.93e-5,"INCLINATION":53.1577,"RA_OF_ASC_NODE":312.9903,"ARG_OF_PERICENTER":75.7192,"MEAN_ANOMALY":284.3908,"EPHEMERIS_TYPE":0,"CLASSIFICATION_TYPE":"U","NORAD_CAT_ID":68511,"ELEMENT_SET_NO":999,"REV_AT_EPOCH":286,"BSTAR":0.00064266714,"MEAN_MOTION_DOT":0.00128293,"MEAN_MOTION_DDOT":0},{"OBJECT_NAME":"STARLINK-37286","OBJECT_ID":"2026-068E","EPOCH":"2026-04-17T22:10:42.811968","MEAN_MOTION":15.80910327,"ECCENTRICITY":7.933e-5,"INCLINATION":53.1579,"RA_OF_ASC_NODE":312.6694,"ARG_OF_PERICENTER":69.261,"MEAN_ANOMALY":290.8497,"EPHEMERIS_TYPE":0,"CLASSIFICATION_TYPE":"U","NORAD_CAT_ID":68512,"ELEMENT_SET_NO":999,"REV_AT_EPOCH":287,"BSTAR":0.00086577343,"MEAN_MOTION_DOT":0.00173961,"MEAN_MOTION_DDOT":0},{"OBJECT_NAME":"STARLINK-36250","OBJECT_ID":"2026-068F","EPOCH":"2026-04-17T22:09:37.786464","MEAN_MOTION":15.80935919,"ECCENTRICITY":6.229e-5,"INCLINATION":53.1575,"RA_OF_ASC_NODE":312.664,"ARG_OF_PERICENTER":91.4602,"MEAN_ANOMALY":268.6492,"EPHEMERIS_TYPE":0,"CLASSIFICATION_TYPE":"U","NORAD_CAT_ID":68513,"ELEMENT_SET_NO":999,"REV_AT_EPOCH":287,"BSTAR":0.00097341761,"MEAN_MOTION_DOT":0.00196425,"MEAN_MOTION_DDOT":0},{"OBJECT_NAME":"STARLINK-37251","OBJECT_ID":"2026-068G","EPOCH":"2026-04-17T22:08:32.999424","MEAN_MOTION":15.80910579,"ECCENTRICITY":7.226e-5,"INCLINATION":53.1579,"RA_OF_ASC_NODE":312.6583,"ARG_OF_PERICENTER":71.9009,"MEAN_ANOMALY":288.2092,"EPHEMERIS_TYPE":0,"CLASSIFICATION_TYPE":"U","NORAD_CAT_ID":68514,"ELEMENT_SET_NO":999,"REV_AT_EPOCH":287,"BSTAR":0.00063667828,"MEAN_MOTION_DOT":0.00127045,"MEAN_MOTION_DDOT":0},{"OBJECT_NAME":"STARLINK-36293","OBJECT_ID":"2026-068H","EPOCH":"2026-04-17T22:07:28.433568","MEAN_MOTION":15.80936877,"ECCENTRICITY":7.165e-5,"INCLINATION":53.1577,"RA_OF_ASC_NODE":312.6532,"ARG_OF_PERICENTER":69.8346,"MEAN_ANOMALY":290.2754,"EPHEMERIS_TYPE":0,"CLASSIFICATION_TYPE":"U","NORAD_CAT_ID":68515,"ELEMENT_SET_NO":999,"REV_AT_EPOCH":287,"BSTAR":0.0013009184,"MEAN_MOTION_DOT":0.00264875,"MEAN_MOTION_DDOT":0},{"OBJECT_NAME":"STARLINK-36290","OBJECT_ID":"2026-068J","EPOCH":"2026-04-17T22:06:23.124672","MEAN_MOTION":15.80972187,"ECCENTRICITY":8.277e-5,"INCLINATION":53.1579,"RA_OF_ASC_NODE":312.6491,"ARG_OF_PERICENTER":60.312,"MEAN_ANOMALY":299.7985,"EPHEMERIS_TYPE":0,"CLASSIFICATION_TYPE":"U","NORAD_CAT_ID":68516,"ELEMENT_SET_NO":999,"REV_AT_EPOCH":287,"BSTAR":0.0013195031,"MEAN_MOTION_DOT":0.00269243,"MEAN_MOTION_DDOT":0},{"OBJECT_NAME":"STARLINK-36298","OBJECT_ID":"2026-068K","EPOCH":"2026-04-17T22:05:18.568320","MEAN_MOTION":15.80898343,"ECCENTRICITY":8.004e-5,"INCLINATION":53.1579,"RA_OF_ASC_NODE":312.6436,"ARG_OF_PERICENTER":65.3476,"MEAN_ANOMALY":294.763,"EPHEMERIS_TYPE":0,"CLASSIFICATION_TYPE":"U","NORAD_CAT_ID":68517,"ELEMENT_SET_NO":999,"REV_AT_EPOCH":287,"BSTAR":0.00053467462,"MEAN_MOTION_DOT":0.00106259,"MEAN_MOTION_DDOT":0},{"OBJECT_NAME":"STARLINK-36857","OBJECT_ID":"2026-068L","EPOCH":"2026-04-17T22:03:08.990784","MEAN_MOTION":15.8092329,"ECCENTRICITY":8.191e-5,"INCLINATION":53.1576,"RA_OF_ASC_NODE":312.6329,"ARG_OF_PERICENTER":74.0175,"MEAN_ANOMALY":286.0938,"EPHEMERIS_TYPE":0,"CLASSIFICATION_TYPE":"U","NORAD_CAT_ID":68518,"ELEMENT_SET_NO":999,"REV_AT_EPOCH":287,"BSTAR":0.00091500968,"MEAN_MOTION_DOT":0.00184225,"MEAN_MOTION_DDOT":0},{"OBJECT_NAME":"STARLINK-36326","OBJECT_ID":"2026-068M","EPOCH":"2026-04-17T22:04:13.797696","MEAN_MOTION":15.80901572,"ECCENTRICITY":7.391e-5,"INCLINATION":53.1577,"RA_OF_ASC_NODE":312.6383,"ARG_OF_PERICENTER":74.4472,"MEAN_ANOMALY":285.6633,"EPHEMERIS_TYPE":0,"CLASSIFICATION_TYPE":"U","NORAD_CAT_ID":68519,"ELEMENT_SET_NO":999,"REV_AT_EPOCH":287,"BSTAR":0.00059457762,"MEAN_MOTION_DOT":0.00118429,"MEAN_MOTION_DDOT":0},{"OBJECT_NAME":"STARLINK-37126","OBJECT_ID":"2026-068N","EPOCH":"2026-04-17T22:02:04.104384","MEAN_MOTION":15.80906909,"ECCENTRICITY":6.768e-5,"INCLINATION":53.1577,"RA_OF_ASC_NODE":312.6282,"ARG_OF_PERICENTER":88.0187,"MEAN_ANOMALY":272.0913,"EPHEMERIS_TYPE":0,"CLASSIFICATION_TYPE":"U","NORAD_CAT_ID":68520,"ELEMENT_SET_NO":999,"REV_AT_EPOCH":287,"BSTAR":0.00059055793,"MEAN_MOTION_DOT":0.00117642,"MEAN_MOTION_DDOT":0},{"OBJECT_NAME":"STARLINK-36347","OBJECT_ID":"2026-068P","EPOCH":"2026-04-17T22:00:59.383872","MEAN_MOTION":15.80904943,"ECCENTRICITY":8.334e-5,"INCLINATION":53.1582,"RA_OF_ASC_NODE":312.624,"ARG_OF_PERICENTER":75.3871,"MEAN_ANOMALY":284.7244,"EPHEMERIS_TYPE":0,"CLASSIFICATION_TYPE":"U","NORAD_CAT_ID":68521,"ELEMENT_SET_NO":999,"REV_AT_EPOCH":287,"BSTAR":0.00061898404,"MEAN_MOTION_DOT":0.0012341,"MEAN_MOTION_DDOT":0},{"OBJECT_NAME":"STARLINK-36322","OBJECT_ID":"2026-068Q","EPOCH":"2026-04-17T21:59:54.534624","MEAN_MOTION":15.80906204,"ECCENTRICITY":8.089e-5,"INCLINATION":53.1578,"RA_OF_ASC_NODE":312.6188,"ARG_OF_PERICENTER":76.7708,"MEAN_ANOMALY":283.3404,"EPHEMERIS_TYPE":0,"CLASSIFICATION_TYPE":"U","NORAD_CAT_ID":68522,"ELEMENT_SET_NO":999,"REV_AT_EPOCH":287,"BSTAR":0.00061562939,"MEAN_MOTION_DOT":0.00122735,"MEAN_MOTION_DDOT":0},{"OBJECT_NAME":"STARLINK-37208","OBJECT_ID":"2026-068R","EPOCH":"2026-04-17T21:58:49.786464","MEAN_MOTION":15.80900633,"ECCENTRICITY":8.386e-5,"INCLINATION":53.1582,"RA_OF_ASC_NODE":312.6132,"ARG_OF_PERICENTER":71.2667,"MEAN_ANOMALY":288.8447,"EPHEMERIS_TYPE":0,"CLASSIFICATION_TYPE":"U","NORAD_CAT_ID":68523,"ELEMENT_SET_NO":999,"REV_AT_EPOCH":287,"BSTAR":0.00067153224,"MEAN_MOTION_DOT":0.00134087,"MEAN_MOTION_DDOT":0},{"OBJECT_NAME":"STARLINK-36302","OBJECT_ID":"2026-068S","EPOCH":"2026-04-17T21:57:44.919936","MEAN_MOTION":15.80934243,"ECCENTRICITY":7.685e-5,"INCLINATION":53.158,"RA_OF_ASC_NODE":312.6076,"ARG_OF_PERICENTER":75.8796,"MEAN_ANOMALY":284.2312,"EPHEMERIS_TYPE":0,"CLASSIFICATION_TYPE":"U","NORAD_CAT_ID":68524,"ELEMENT_SET_NO":999,"REV_AT_EPOCH":287,"BSTAR":0.0011082422,"MEAN_MOTION_DOT":0.00224446,"MEAN_MOTION_DDOT":0}]
